{
  "type": "FeatureCollection",
  "name": "Nirantar Placeholder Road Network",
  "crs": { "type": "name", "properties": { "name": "urn:ogc:def:crs:OGC:1.3:CRS84" } },
  "features": [
    {
      "type": "Feature",
      "properties": {
        "osmid": "h_e_1", "name": "NH-Placeholder-1", "highway": "primary",
        "surface": "paved", "lanes": 2, "length_m": 12000,
        "is_night_restricted": false, "is_chokepoint": false,
        "district_id": "hill_tbd"
      },
      "geometry": { "type": "LineString", "coordinates": [[94.0, 27.0], [94.1, 27.05]] }
    },
    {
      "type": "Feature",
      "properties": {
        "osmid": "h_e_2", "name": "Hill Road 2", "highway": "secondary",
        "surface": "paved", "lanes": 2, "length_m": 8000,
        "is_night_restricted": false, "is_chokepoint": false,
        "district_id": "hill_tbd"
      },
      "geometry": { "type": "LineString", "coordinates": [[94.1, 27.05], [94.2, 27.08]] }
    },
    {
      "type": "Feature",
      "properties": {
        "osmid": "h_e_3", "name": "Mountain Track 3", "highway": "tertiary",
        "surface": "unpaved", "lanes": 1, "length_m": 6500,
        "is_night_restricted": true, "is_chokepoint": false,
        "district_id": "hill_tbd"
      },
      "geometry": { "type": "LineString", "coordinates": [[94.1, 27.05], [94.15, 27.12]] }
    },
    {
      "type": "Feature",
      "properties": {
        "osmid": "h_e_4", "name": "Ridge Road 4", "highway": "unclassified",
        "surface": "gravel", "lanes": 1, "length_m": 9000,
        "is_night_restricted": true, "is_chokepoint": false,
        "district_id": "hill_tbd"
      },
      "geometry": { "type": "LineString", "coordinates": [[94.2, 27.08], [94.25, 27.15]] }
    },
    {
      "type": "Feature",
      "properties": {
        "osmid": "h_e_5", "name": "Bridge Crossing Alpha", "highway": "secondary",
        "surface": "paved", "lanes": 1, "length_m": 400,
        "is_night_restricted": false, "is_chokepoint": true,
        "is_single_lane_bridge": true,
        "district_id": "hill_tbd"
      },
      "geometry": { "type": "LineString", "coordinates": [[94.15, 27.12], [94.18, 27.14]] }
    },
    {
      "type": "Feature",
      "properties": {
        "osmid": "h_e_6", "name": "Valley Link Road", "highway": "tertiary",
        "surface": "paved", "lanes": 2, "length_m": 11000,
        "is_night_restricted": false, "is_chokepoint": false,
        "district_id": "hill_tbd"
      },
      "geometry": { "type": "LineString", "coordinates": [[94.18, 27.14], [94.25, 27.15]] }
    },
    {
      "type": "Feature",
      "properties": {
        "osmid": "h_e_7", "name": "Bypass Track 7", "highway": "track",
        "surface": "dirt", "lanes": 1, "length_m": 14000,
        "is_night_restricted": true, "is_chokepoint": false,
        "district_id": "hill_tbd"
      },
      "geometry": { "type": "LineString", "coordinates": [[94.0, 27.0], [94.25, 27.15]] }
    },
    {
      "type": "Feature",
      "properties": {
        "osmid": "h_e_8", "name": "Isolated Village Spur", "highway": "unclassified",
        "surface": "gravel", "lanes": 1, "length_m": 5000,
        "is_night_restricted": true, "is_chokepoint": false,
        "district_id": "hill_tbd"
      },
      "geometry": { "type": "LineString", "coordinates": [[94.18, 27.14], [94.20, 27.20]] }
    },
    {
      "type": "Feature",
      "properties": {
        "osmid": "h_e_9", "name": "Hill Track 9", "highway": "tertiary",
        "surface": "paved", "lanes": 2, "length_m": 7000,
        "is_night_restricted": false, "is_chokepoint": false,
        "district_id": "hill_tbd"
      },
      "geometry": { "type": "LineString", "coordinates": [[94.0, 27.0], [94.05, 27.08]] }
    },
    {
      "type": "Feature",
      "properties": {
        "osmid": "h_e_10", "name": "Hill Track 10", "highway": "tertiary",
        "surface": "paved", "lanes": 2, "length_m": 7500,
        "is_night_restricted": false, "is_chokepoint": false,
        "district_id": "hill_tbd"
      },
      "geometry": { "type": "LineString", "coordinates": [[94.05, 27.08], [94.1, 27.05]] }
    }
  ]
}
